CCSDS_OMM_VERS = 2.0
CREATION_DATE  = 
ORIGINATOR     = 

OBJECT_NAME    = COSMOS 2058
OBJECT_ID      = 1990-010A
CENTER_NAME    = EARTH
REF_FRAME      = TEME
TIME_SYSTEM    = UTC
MEAN_ELEMENT_THEORY = SGP/SGP4

EPOCH          = 2026-03-18T22:00:41.341824
MEAN_MOTION    = 15.11400836
ECCENTRICITY   = .00081079
INCLINATION    = 82.4673
RA_OF_ASC_NODE = 38.3346
ARG_OF_PERICENTER = 312.0268
MEAN_ANOMALY   = 48.0271

EPHEMERIS_TYPE = 0
CLASSIFICATION_TYPE = U
NORAD_CAT_ID   = 20465
ELEMENT_SET_NO = 999
REV_AT_EPOCH   = 94363
BSTAR          = .20644789E-3
MEAN_MOTION_DOT = .3515E-4
MEAN_MOTION_DDOT = 0

CCSDS_OMM_VERS = 2.0
CREATION_DATE  = 
ORIGINATOR     = 

OBJECT_NAME    = SL-14 R/B
OBJECT_ID      = 1990-010B
CENTER_NAME    = EARTH
REF_FRAME      = TEME
TIME_SYSTEM    = UTC
MEAN_ELEMENT_THEORY = SGP/SGP4

EPOCH          = 2026-03-18T22:14:57.660000
MEAN_MOTION    = 14.83577050
ECCENTRICITY   = .00183195
INCLINATION    = 82.4987
RA_OF_ASC_NODE = 258.7090
ARG_OF_PERICENTER = 269.4952
MEAN_ANOMALY   = 90.4163

EPHEMERIS_TYPE = 0
CLASSIFICATION_TYPE = U
NORAD_CAT_ID   = 20466
ELEMENT_SET_NO = 999
REV_AT_EPOCH   = 92985
BSTAR          = .46569551E-4
MEAN_MOTION_DOT = .408E-5
MEAN_MOTION_DDOT = 0

CCSDS_OMM_VERS = 2.0
CREATION_DATE  = 
ORIGINATOR     = 

OBJECT_NAME    = SL-14 R/B
OBJECT_ID      = 1990-018B
CENTER_NAME    = EARTH
REF_FRAME      = TEME
TIME_SYSTEM    = UTC
MEAN_ELEMENT_THEORY = SGP/SGP4

EPOCH          = 2026-03-18T21:16:12.570240
MEAN_MOTION    = 14.82154471
ECCENTRICITY   = .00174878
INCLINATION    = 82.5220
RA_OF_ASC_NODE = 214.4943
ARG_OF_PERICENTER = 64.1648
MEAN_ANOMALY   = 296.1368

EPHEMERIS_TYPE = 0
CLASSIFICATION_TYPE = U
NORAD_CAT_ID   = 20511
ELEMENT_SET_NO = 999
REV_AT_EPOCH   = 92394
BSTAR          = .50538948E-4
MEAN_MOTION_DOT = .427E-5
MEAN_MOTION_DDOT = 0

CCSDS_OMM_VERS = 2.0
CREATION_DATE  = 
ORIGINATOR     = 

OBJECT_NAME    = HST
OBJECT_ID      = 1990-037B
CENTER_NAME    = EARTH
REF_FRAME      = TEME
TIME_SYSTEM    = UTC
MEAN_ELEMENT_THEORY = SGP/SGP4

EPOCH          = 2026-03-18T10:11:45.621312
MEAN_MOTION    = 15.29619604
ECCENTRICITY   = .00016017
INCLINATION    = 28.4725
RA_OF_ASC_NODE = 340.4058
ARG_OF_PERICENTER = 218.0332
MEAN_ANOMALY   = 142.0151

EPHEMERIS_TYPE = 0
CLASSIFICATION_TYPE = U
NORAD_CAT_ID   = 20580
ELEMENT_SET_NO = 999
REV_AT_EPOCH   = 77465
BSTAR          = .19795902E-3
MEAN_MOTION_DOT = .6076E-4
MEAN_MOTION_DDOT = 0

CCSDS_OMM_VERS = 2.0
CREATION_DATE  = 
ORIGINATOR     = 

OBJECT_NAME    = SL-16 R/B
OBJECT_ID      = 1990-046B
CENTER_NAME    = EARTH
REF_FRAME      = TEME
TIME_SYSTEM    = UTC
MEAN_ELEMENT_THEORY = SGP/SGP4

EPOCH          = 2026-03-18T22:59:16.281312
MEAN_MOTION    = 14.15011973
ECCENTRICITY   = .00161902
INCLINATION    = 70.9954
RA_OF_ASC_NODE = 278.4480
ARG_OF_PERICENTER = 287.2815
MEAN_ANOMALY   = 72.6536

EPHEMERIS_TYPE = 0
CLASSIFICATION_TYPE = U
NORAD_CAT_ID   = 20625
ELEMENT_SET_NO = 999
REV_AT_EPOCH   = 84970
BSTAR          = .54471345E-4
MEAN_MOTION_DOT = .58E-6
MEAN_MOTION_DDOT = 0

CCSDS_OMM_VERS = 2.0
CREATION_DATE  = 
ORIGINATOR     = 

OBJECT_NAME    = COSMOS 2084
OBJECT_ID      = 1990-055A
CENTER_NAME    = EARTH
REF_FRAME      = TEME
TIME_SYSTEM    = UTC
MEAN_ELEMENT_THEORY = SGP/SGP4

EPOCH          = 2026-03-18T22:52:53.646816
MEAN_MOTION    = 15.05700267
ECCENTRICITY   = .0015623
INCLINATION    = 62.7902
RA_OF_ASC_NODE = 303.9824
ARG_OF_PERICENTER = 192.5621
MEAN_ANOMALY   = 167.5092

EPHEMERIS_TYPE = 0
CLASSIFICATION_TYPE = U
NORAD_CAT_ID   = 20663
ELEMENT_SET_NO = 999
REV_AT_EPOCH   = 93771
BSTAR          = .14092815E-3
MEAN_MOTION_DOT = .1849E-4
MEAN_MOTION_DDOT = 0

CCSDS_OMM_VERS = 2.0
CREATION_DATE  = 
ORIGINATOR     = 

OBJECT_NAME    = SL-6 R/B(2)
OBJECT_ID      = 1990-055D
CENTER_NAME    = EARTH
REF_FRAME      = TEME
TIME_SYSTEM    = UTC
MEAN_ELEMENT_THEORY = SGP/SGP4

EPOCH          = 2026-03-18T16:23:06.766944
MEAN_MOTION    = 15.03638482
ECCENTRICITY   = .00262582
INCLINATION    = 62.7825
RA_OF_ASC_NODE = 223.2661
ARG_OF_PERICENTER = 349.1881
MEAN_ANOMALY   = 10.8651

EPHEMERIS_TYPE = 0
CLASSIFICATION_TYPE = U
NORAD_CAT_ID   = 20666
ELEMENT_SET_NO = 999
REV_AT_EPOCH   = 93954
BSTAR          = .1516617E-3
MEAN_MOTION_DOT = .1898E-4
MEAN_MOTION_DDOT = 0

CCSDS_OMM_VERS = 2.0
CREATION_DATE  = 
ORIGINATOR     = 

OBJECT_NAME    = SL-8 R/B
OBJECT_ID      = 1990-078B
CENTER_NAME    = EARTH
REF_FRAME      = TEME
TIME_SYSTEM    = UTC
MEAN_ELEMENT_THEORY = SGP/SGP4

EPOCH          = 2026-03-18T21:57:21.669696
MEAN_MOTION    = 14.89351742
ECCENTRICITY   = .03602901
INCLINATION    = 82.9000
RA_OF_ASC_NODE = 243.0105
ARG_OF_PERICENTER = 342.9438
MEAN_ANOMALY   = 15.9915

EPHEMERIS_TYPE = 0
CLASSIFICATION_TYPE = U
NORAD_CAT_ID   = 20775
ELEMENT_SET_NO = 999
REV_AT_EPOCH   = 81067
BSTAR          = .32198362E-3
MEAN_MOTION_DOT = .10908E-3
MEAN_MOTION_DDOT = 0

CCSDS_OMM_VERS = 2.0
CREATION_DATE  = 
ORIGINATOR     = 

OBJECT_NAME    = SL-8 R/B
OBJECT_ID      = 1991-006B
CENTER_NAME    = EARTH
REF_FRAME      = TEME
TIME_SYSTEM    = UTC
MEAN_ELEMENT_THEORY = SGP/SGP4

EPOCH          = 2026-03-18T17:23:46.372992
MEAN_MOTION    = 13.77495468
ECCENTRICITY   = .00225227
INCLINATION    = 82.9459
RA_OF_ASC_NODE = 163.3291
ARG_OF_PERICENTER = 13.6255
MEAN_ANOMALY   = 151.2521

EPHEMERIS_TYPE = 0
CLASSIFICATION_TYPE = U
NORAD_CAT_ID   = 21088
ELEMENT_SET_NO = 999
REV_AT_EPOCH   = 76531
BSTAR          = .70433936E-4
MEAN_MOTION_DOT = .85E-6
MEAN_MOTION_DDOT = 0

CCSDS_OMM_VERS = 2.0
CREATION_DATE  = 
ORIGINATOR     = 

OBJECT_NAME    = OKEAN-3
OBJECT_ID      = 1991-039A
CENTER_NAME    = EARTH
REF_FRAME      = TEME
TIME_SYSTEM    = UTC
MEAN_ELEMENT_THEORY = SGP/SGP4

EPOCH          = 2026-03-18T15:44:12.632064
MEAN_MOTION    = 15.04866858
ECCENTRICITY   = .0013025
INCLINATION    = 82.5194
RA_OF_ASC_NODE = 328.1587
ARG_OF_PERICENTER = 303.6458
MEAN_ANOMALY   = 56.3526

EPHEMERIS_TYPE = 0
CLASSIFICATION_TYPE = U
NORAD_CAT_ID   = 21397
ELEMENT_SET_NO = 999
REV_AT_EPOCH   = 86638
BSTAR          = .14366E-3
MEAN_MOTION_DOT = .2061E-4
MEAN_MOTION_DDOT = 0

CCSDS_OMM_VERS = 2.0
CREATION_DATE  = 
ORIGINATOR     = 

OBJECT_NAME    = COSMOS 2151
OBJECT_ID      = 1991-042A
CENTER_NAME    = EARTH
REF_FRAME      = TEME
TIME_SYSTEM    = UTC
MEAN_ELEMENT_THEORY = SGP/SGP4

EPOCH          = 2026-03-18T22:55:15.513888
MEAN_MOTION    = 15.00142835
ECCENTRICITY   = .00133851
INCLINATION    = 82.4932
RA_OF_ASC_NODE = 74.7355
ARG_OF_PERICENTER = 35.2313
MEAN_ANOMALY   = 324.9794

EPHEMERIS_TYPE = 0
CLASSIFICATION_TYPE = U
NORAD_CAT_ID   = 21422
ELEMENT_SET_NO = 999
REV_AT_EPOCH   = 86458
BSTAR          = .14058539E-3
MEAN_MOTION_DOT = .1784E-4
MEAN_MOTION_DDOT = 0

CCSDS_OMM_VERS = 2.0
CREATION_DATE  = 
ORIGINATOR     = 

OBJECT_NAME    = SL-14 R/B
OBJECT_ID      = 1991-042B
CENTER_NAME    = EARTH
REF_FRAME      = TEME
TIME_SYSTEM    = UTC
MEAN_ELEMENT_THEORY = SGP/SGP4

EPOCH          = 2026-03-18T20:58:07.510656
MEAN_MOTION    = 14.81839039
ECCENTRICITY   = .0016365
INCLINATION    = 82.4940
RA_OF_ASC_NODE = 211.5709
ARG_OF_PERICENTER = 206.5563
MEAN_ANOMALY   = 153.4815

EPHEMERIS_TYPE = 0
CLASSIFICATION_TYPE = U
NORAD_CAT_ID   = 21423
ELEMENT_SET_NO = 999
REV_AT_EPOCH   = 85443
BSTAR          = .52226359E-4
MEAN_MOTION_DOT = .437E-5
MEAN_MOTION_DDOT = 0

