COSMOS 2058             
1 20465U 90010A   26077.91714516  .00003515  00000+0  20645-3 0  9996
2 20465  82.4673  38.3346 0008107 312.0268  48.0271 15.11400836943630
SL-14 R/B               
1 20466U 90010B   26077.92705625  .00000408  00000+0  46570-4 0  9993
2 20466  82.4987 258.7090 0018319 269.4952  90.4163 14.83577050929854
SL-14 R/B               
1 20511U 90018B   26077.88625660  .00000427  00000+0  50539-4 0  9998
2 20511  82.5220 214.4943 0017487  64.1648 296.1368 14.82154471923942
HST                     
1 20580U 90037B   26077.42483358  .00006076  00000+0  19796-3 0  9996
2 20580  28.4725 340.4058 0001601 218.0332 142.0151 15.29619604774652
SL-16 R/B               
1 20625U 90046B   26077.95782733  .00000058  00000+0  54471-4 0  9997
2 20625  70.9954 278.4480 0016190 287.2815  72.6536 14.15011973849703
COSMOS 2084             
1 20663U 90055A   26077.95339869  .00001849  00000+0  14093-3 0  9991
2 20663  62.7902 303.9824 0015623 192.5621 167.5092 15.05700267937717
SL-6 R/B(2)             
1 20666U 90055D   26077.68271721  .00001898  00000+0  15166-3 0  9992
2 20666  62.7825 223.2661 0026258 349.1881  10.8651 15.03638482939542
SL-8 R/B                
1 20775U 90078B   26077.91483414  .00010908  00000+0  32198-3 0  9994
2 20775  82.9000 243.0105 0360290 342.9438  15.9915 14.89351742810676
SL-8 R/B                
1 21088U 91006B   26077.72484228  .00000085  00000+0  70434-4 0  9998
2 21088  82.9459 163.3291 0022522  13.6255 151.2521 13.77495468765311
OKEAN-3                 
1 21397U 91039A   26077.65570176  .00002061  00000+0  14366-3 0  9994
2 21397  82.5194 328.1587 0013025 303.6458  56.3526 15.04866858866386
COSMOS 2151             
1 21422U 91042A   26077.95504067  .00001784  00000+0  14059-3 0  9996
2 21422  82.4932  74.7355 0013385  35.2313 324.9794 15.00142835864587
SL-14 R/B               
1 21423U 91042B   26077.87369804  .00000437  00000+0  52226-4 0  9999
2 21423  82.4940 211.5709 0016365 206.5563 153.4815 14.81839039854431
